NORAD_CAT_ID,OBJECT_NAME,OBJECT_TYPE,EPOCH,MEAN_MOTION,ECCENTRICITY,INCLINATION,RA_OF_ASC_NODE,ARG_OF_PERICENTER,MEAN_ANOMALY,BSTAR,MEAN_MOTION_DOT,MEAN_MOTION_DDOT,TLE_LINE0,TLE_LINE1,TLE_LINE2,SEMIMAJOR_AXIS,PERIOD,APOGEE,PERIGEE,DECAYED
52873.0,STARLINK-4211,PAYLOAD,2022-08-07 22:00:00,15.73218102,0.0003616,53.2146,150.513,5.1162,250.0531,9.9566e-05,0.00013387,0.0,0 STARLINK-4211,1 52873U 22062AV  22219.91667824  .00013387  00000-0  99566-4 0  9997,2 52873  53.2146 150.5130 0003616   5.1162 250.0531 15.73218102  1304,6727.844,91.532,352.141,347.276,0.0
52873.0,STARLINK-4211,PAYLOAD,2022-08-08 04:32:35,15.73233881,0.0003884,53.2153,149.1621,7.8979,352.2101,6.1324e-05,8.006e-05,0.0,0 STARLINK-4211,1 52873U 22062AV  22220.18930213  .00008006  00000-0  61324-4 0  9996,2 52873  53.2153 149.1621 0003884   7.8979 352.2101 15.73233881  8635,6727.799,91.531,352.277,347.051,0.0
52873.0,STARLINK-4211,PAYLOAD,2022-08-08 14:00:01,15.73266638,0.0003528,53.2142,147.2131,3.1243,70.1141,-0.00022575,-0.00032287,0.0,0 STARLINK-4211,1 52873U 22062AV  22220.58335648 -.00032287  00000-0 -22575-3 0  9995,2 52873  53.2142 147.2131 0003528   3.1243  70.1141 15.73266638  8698,6727.705,91.529,351.944,347.19699999999995,0.0
52873.0,STARLINK-4211,PAYLOAD,2022-08-08 22:00:00,15.73269426,0.0003518,53.2145,145.564,5.0641,157.1063,-0.00078425,-0.00109636,0.0,0 STARLINK-4211,1 52873U 22062AV  22220.91667824 -.00109636  00000-0 -78425-3 0  9994,2 52873  53.2145 145.5640 0003518   5.0641 157.1063 15.73269426  1307,6727.696999999999,91.529,351.92900000000014,347.195,0.0
52873.0,STARLINK-4211,PAYLOAD,2022-08-09 06:00:00,15.73173294,0.0003782,53.2147,143.916,6.0038,245.1463,-0.00010687,-0.00015584,0.0,0 STARLINK-4211,1 52873U 22062AV  22221.25001157 -.00015584  00000-0 -10687-3 0  9997,2 52873  53.2147 143.9160 0003782   6.0038 245.1463 15.73173294  8803,6727.971,91.535,352.381,347.292,0.0
52873.0,STARLINK-4211,PAYLOAD,2022-08-09 14:00:01,15.73103636,0.0003584,53.2151,142.2644,11.1469,328.8939,0.00027131,0.00037478,0.0,0 STARLINK-4211,1 52873U 22062AV  22221.58334491  .00037478  00000-0  27131-3 0  9999,2 52873  53.2151 142.2644 0003584  11.1469 328.8939 15.73103636  8857,6728.17,91.539,352.446,347.624,0.0
52873.0,STARLINK-4211,PAYLOAD,2022-08-09 22:00:00,15.73151276,0.0003669,53.2153,140.6158,13.8544,55.0082,0.00012682,0.0001718,0.0,0 STARLINK-4211,1 52873U 22062AV  22221.91667824  .00017180  00000-0  12682-3 0  9998,2 52873  53.2153 140.6158 0003669  13.8544  55.0082 15.73151276  1302,6728.034000000002,91.536,352.36800000000005,347.431,0.0
52873.0,STARLINK-4211,PAYLOAD,2022-08-10 14:00:01,15.73170508,0.0003586,53.215,137.3164,14.2343,232.3914,0.00054574,0.00076593,0.0,0 STARLINK-4211,1 52873U 22062AV  22222.58334491  .00076593  00000-0  54574-3 0  9992,2 52873  53.2150 137.3164 0003586  14.2343 232.3914 15.73170508  1302,6727.979,91.535,352.25699999999995,347.432,0.0
52873.0,STARLINK-4211,PAYLOAD,2022-08-10 17:07:18,15.73195851,0.0003484,53.215,136.6725,14.7441,248.9478,0.00041094,0.0005745,0.0,0 STARLINK-4211,1 52873U 22062AV  22222.71341435  .00057450  00000-0  41094-3 0  9997,2 52873  53.2150 136.6725 0003484  14.7441 248.9478 15.73195851  9032,6727.906999999997,91.533,352.116,347.42800000000005,0.0
52873.0,STARLINK-4211,PAYLOAD,2022-08-10 22:00:00,15.73267828,0.0003549999999999,53.2153,135.6678,13.155,322.3877,-0.00081634,-0.00114031,0.0,0 STARLINK-4211,1 52873U 22062AV  22222.91667824 -.00114031  00000-0 -81634-3 0  9997,2 52873  53.2153 135.6678 0003550  13.1550 322.3877 15.73267828  1305,6727.7019999999975,91.529,351.955,347.17800000000005,0.0
52873.0,STARLINK-4211,PAYLOAD,2022-08-11 06:00:02,15.73180325,0.0003746,53.2152,134.0195,8.8653,55.6994,-0.00019461,-0.00027834,0.0,0 STARLINK-4211,1 52873U 22062AV  22223.25002315 -.00027834  00000-0 -19461-3 0  9996,2 52873  53.2152 134.0195 0003746   8.8653  55.6994 15.73180325  9112,6727.951,91.534,352.337,347.296,0.0
52873.0,STARLINK-4211,PAYLOAD,2022-08-11 14:00:01,15.73232409,0.0003512,53.2158,132.3675,10.4302,143.0628,-0.00018925,-0.00027145,0.0,0 STARLINK-4211,1 52873U 22062AV  22223.58334491 -.00027145  00000-0 -18925-3 0  9994,2 52873  53.2158 132.3675 0003512  10.4302 143.0628 15.73232409  1303,6727.803000000001,91.531,352.031,347.305,0.0
52873.0,STARLINK-4211,PAYLOAD,2022-08-11 22:00:00,15.73326817,0.0003549999999999,53.2166,130.7167,13.1713,229.2575,-0.0023604,-0.00321481,0.0,0 STARLINK-4211,1 52873U 22062AV  22223.91667824 -.00321481  00000-0 -23604-2 0  9999,2 52873  53.2166 130.7167 0003550  13.1713 229.2575 15.73326817  9222,6727.534000000002,91.526,351.787,347.01,0.0
52873.0,STARLINK-4211,PAYLOAD,2022-08-12 06:00:00,15.73179867,0.0003731999999999,53.2152,129.0707,6.6927,324.7216,0.0003763,0.0005249,0.0,0 STARLINK-4211,1 52873U 22062AV  22224.25001157  .00052490  00000-0  37630-3 0  9992,2 52873  53.2152 129.0707 0003732   6.6927 324.7216 15.73179867  9273,6727.953,91.534,352.32800000000015,347.307,0.0
52873.0,STARLINK-4211,PAYLOAD,2022-08-12 14:00:01,15.73218673,0.000339,53.2152,127.4192,5.1626,55.1885,2.2448e-06,-3.08e-06,0.0,0 STARLINK-4211,1 52873U 22062AV  22224.58334491 -.00000308  00000-0  22448-5 0  9993,2 52873  53.2152 127.4192 0003390   5.1626  55.1885 15.73218673  1305,6727.842,91.532,351.98800000000006,347.426,0.0
52873.0,STARLINK-4211,PAYLOAD,2022-08-12 20:00:01,15.73211802,0.000339,53.2154,126.1826,5.3577,31.7757,9.9198e-05,0.00013331,0.0,0 STARLINK-4211,1 52873U 22062AV  22224.83335648  .00013331  00000-0  99198-4 0  9990,2 52873  53.2154 126.1826 0003390   5.3577  31.7757 15.73211802  9363,6727.861999999999,91.532,352.00699999999995,347.446,0.0
52873.0,STARLINK-4211,PAYLOAD,2022-08-12 22:00:01,15.73208535,0.000349,53.2153,125.7708,5.0723,144.2987,0.000184,0.00025294,0.0,0 STARLINK-4211,1 52873U 22062AV  22224.91668981  .00025294  00000-0  18400-3 0  9995,2 52873  53.2153 125.7708 0003490   5.0723 144.2987 15.73208535  1307,6727.871,91.533,352.084,347.38800000000015,0.0
52873.0,STARLINK-4211,PAYLOAD,2022-08-13 06:00:02,15.73231114,0.0003643,53.2151,124.1221,5.2781,233.0015,-0.00084958,-0.00118405,0.0,0 STARLINK-4211,1 52873U 22062AV  22225.25002315 -.00118405  00000-0 -84958-3 0  9996,2 52873  53.2151 124.1221 0003643   5.2781 233.0015 15.73231114  9434,6727.806,91.531,352.122,347.221,0.0
52873.0,STARLINK-4211,PAYLOAD,2022-08-13 14:00:01,15.73091819,0.0003424,53.2154,122.4705,6.3548,320.7892,0.00044777,0.00062412,0.0,0 STARLINK-4211,1 52873U 22062AV  22225.58334491  .00062412  00000-0  44777-3 0  9994,2 52873  53.2154 122.4705 0003424   6.3548 320.7892 15.73091819  1306,6728.204000000002,91.539,352.372,347.765,0.0
52873.0,STARLINK-4211,PAYLOAD,2022-08-13 22:00:00,15.73147319,0.0003584,53.2154,120.8226,7.0768,48.8888,7.3423e-05,9.673e-05,0.0,0 STARLINK-4211,1 52873U 22062AV  22225.91667824  .00009673  00000-0  73423-4 0  9991,2 52873  53.2154 120.8226 0003584   7.0768  48.8888 15.73147319  1305,6728.045,91.536,352.32199999999995,347.499,0.0
52873.0,STARLINK-4211,PAYLOAD,2022-08-14 14:00:01,15.73168637,0.0003416999999999,53.2147,117.5221,7.522,226.2053,0.00066958,0.00094304,0.0,0 STARLINK-4211,1 52873U 22062AV  22226.58334491  .00094304  00000-0  66958-3 0  9995,2 52873  53.2147 117.5221 0003417   7.5220 226.2053 15.73168637  1300,6727.985,91.535,352.149,347.551,0.0
52873.0,STARLINK-4211,PAYLOAD,2022-08-14 22:00:00,15.73244914,0.000356,53.2148,115.8741,7.2745,315.3714,-0.00013425,-0.00019465,0.0,0 STARLINK-4211,1 52873U 22062AV  22226.91667824 -.00019465  00000-0 -13425-3 0  9999,2 52873  53.2148 115.8741 0003560   7.2745 315.3714 15.73244914  1304,6727.767,91.531,352.027,347.237,0.0
52873.0,STARLINK-4211,PAYLOAD,2022-08-15 06:00:00,15.73205002,0.0003221999999999,53.2171,114.2188,6.755,44.9251,-3.4714e-06,-1.111e-05,0.0,0 STARLINK-4211,1 52873U 22062AV  22227.25001157 -.00001111  00000-0 -34714-5 0  9993,2 52873  53.2171 114.2188 0003222   6.7550  44.9251 15.73205002  9743,6727.880999999999,91.533,351.914,347.57800000000015,0.0
52873.0,STARLINK-4211,PAYLOAD,2022-08-15 14:00:01,15.73195317,0.0003441,53.215,112.5729,5.1222,135.515,0.00049786,0.00069835,0.0,0 STARLINK-4211,1 52873U 22062AV  22227.58334491  .00069835  00000-0  49786-3 0  9997,2 52873  53.2150 112.5729 0003441   5.1222 135.5150 15.73195317  1300,6727.909000000002,91.533,352.089,347.458,0.0
52873.0,STARLINK-4211,PAYLOAD,2022-08-15 16:00:00,15.73216238,0.0003411,53.2152,112.1604,5.0372,247.8339,0.0004096999999999,0.00057324,0.0,0 STARLINK-4211,1 52873U 22062AV  22227.66667824  .00057324  00000-0  40970-3 0  9991,2 52873  53.2152 112.1604 0003411   5.0372 247.8339 15.73216238  9818,6727.849,91.532,352.009,347.4190000000001,0.0
52873.0,STARLINK-4211,PAYLOAD,2022-08-15 22:00:00,15.73278262,0.0003626,53.2151,110.9249,5.0057,224.5869,-0.00071535,-0.0010021,0.0,0 STARLINK-4211,1 52873U 22062AV  22227.91667824 -.00100210  00000-0 -71535-3 0  9995,2 52873  53.2151 110.9249 0003626   5.0057 224.5869 15.73278262  1307,6727.672,91.529,351.977,347.098,0.0
52873.0,STARLINK-4211,PAYLOAD,2022-08-16 06:00:02,15.73246506,0.0003703999999999,53.2146,109.2751,3.5255,315.1144,-0.00056608,-0.00079516,0.0,0 STARLINK-4211,1 52873U 22062AV  22228.25002315 -.00079516  00000-0 -56608-3 0  9999,2 52873  53.2146 109.2751 0003704   3.5255 315.1144 15.73246506  9903,6727.763000000001,91.53,352.12,347.136,0.0
52873.0,STARLINK-4211,PAYLOAD,2022-08-16 14:00:01,15.73161606,0.0003424,53.2147,107.6238,6.7601,40.7807,0.00066016,0.00092926,0.0,0 STARLINK-4211,1 52873U 22062AV  22228.58334491  .00092926  00000-0  66016-3 0  9990,2 52873  53.2147 107.6238 0003424   6.7601  40.7807 15.73161606  9954,6728.005,91.535,352.173,347.566,0.0
52873.0,STARLINK-4211,PAYLOAD,2022-08-16 22:00:00,15.73244739,0.0003626,53.2147,105.9761,5.9068,130.5417,-0.00055813,-0.0007841,0.0,0 STARLINK-4211,1 52873U 22062AV  22228.91667824 -.00078410  00000-0 -55813-3 0  9993,2 52873  53.2147 105.9761 0003626   5.9068 130.5417 15.73244739  1303,6727.768,91.531,352.07199999999995,347.1930000000001,0.0
